{
    "links": {
        "self": "http://www.neowsapp.com/rest/v1/neo/54096684?api_key=iIulBulltgU6a56xZRHN4H3l9WmuAYTsLGpBGhQ2"
    },
    "id": "54096684",
    "neo_reference_id": "54096684",
    "name": "(2020 WN5)",
    "designation": "2020 WN5",
    "nasa_jpl_url": "http://ssd.jpl.nasa.gov/sbdb.cgi?sstr=54096684",
    "absolute_magnitude_h": 27.981,
    "estimated_diameter": {
        "kilometers": {
            "estimated_diameter_min": 0.0067352695,
            "estimated_diameter_max": 0.0150605204
        },
        "meters": {
            "estimated_diameter_min": 6.7352694793,
            "estimated_diameter_max": 15.0605204026
        },
        "miles": {
            "estimated_diameter_min": 0.0041851011,
            "estimated_diameter_max": 0.0093581706
        },
        "feet": {
            "estimated_diameter_min": 22.0973415186,
            "estimated_diameter_max": 49.4111577576
        }
    },
    "is_potentially_hazardous_asteroid": false,
    "close_approach_data": [
        {
            "close_approach_date": "2020-11-11",
            "close_approach_date_full": "2020-Nov-11 18:51",
            "epoch_date_close_approach": 1605120660000,
            "relative_velocity": {
                "kilometers_per_second": "12.2674600184",
                "kilometers_per_hour": "44162.8560663577",
                "miles_per_hour": "27441.0813152321"
            },
            "miss_distance": {
                "astronomical": "0.0029981285",
                "lunar": "1.1662719865",
                "kilometers": "448513.637586295",
                "miles": "278693.451209071"
            },
            "orbiting_body": "Moon"
        },
        {
            "close_approach_date": "2020-11-12",
            "close_approach_date_full": "2020-Nov-12 01:12",
            "epoch_date_close_approach": 1605143520000,
            "relative_velocity": {
                "kilometers_per_second": "11.4611784784",
                "kilometers_per_hour": "41260.2425221302",
                "miles_per_hour": "25637.5101382647"
            },
            "miss_distance": {
                "astronomical": "0.0048071376",
                "lunar": "1.8699765264",
                "kilometers": "719137.545756912",
                "miles": "446851.3501609056"
            },
            "orbiting_body": "Earth"
        },
        {
            "close_approach_date": "2024-05-05",
            "close_approach_date_full": "2024-May-05 16:19",
            "epoch_date_close_approach": 1714925940000,
            "relative_velocity": {
                "kilometers_per_second": "15.5427414965",
                "kilometers_per_hour": "55953.8693875091",
                "miles_per_hour": "34767.5584535886"
            },
            "miss_distance": {
                "astronomical": "0.1346523194",
                "lunar": "52.3797522466",
                "kilometers": "20143700.172799678",
                "miles": "12516714.8795964364"
            },
            "orbiting_body": "Earth"
        }
    ],
    "orbital_data": {
        "orbit_id": "1",
        "orbit_determination_date": "2020-11-30 06:42:02",
        "first_observation_date": "2020-11-17",
        "last_observation_date": "2020-11-18",
        "data_arc_in_days": 1,
        "observations_used": 8,
        "orbit_uncertainty": "8",
        "minimum_orbit_intersection": ".00127927",
        "jupiter_tisserand_invariant": "5.317",
        "epoch_osculation": "2459170.5",
        "eccentricity": ".3765526022754275",
        "semi_major_axis": "1.172659852621196",
        "inclination": ".1705488745154202",
        "ascending_node_longitude": "256.0656529003576",
        "orbital_period": "463.8275192645587",
        "perihelion_distance": ".731091733532765",
        "perihelion_argument": "66.57811222174229",
        "aphelion_distance": "1.614227971709626",
        "perihelion_time": "2459106.413871927081",
        "mean_anomaly": "49.74048573666359",
        "mean_motion": ".7761505841024983",
        "equinox": "J2000",
        "orbit_class": {
            "orbit_class_type": "APO",
            "orbit_class_description": "Near-Earth asteroid orbits which cross the Earth’s orbit similar to that of 1862 Apollo",
            "orbit_class_range": "a (semi-major axis) > 1.0 AU; q (perihelion) < 1.017 AU"
        }
    },
    "is_sentry_object": false
}